ASTRA 2F                
1 38778U 12051A   26173.82146881  .00000153  00000+0  00000+0 0  9996
2 38778   0.0495 252.2835 0001820 278.3301  64.2855  1.00273352 41193
GSAT-10                 
1 38779U 12051B   26173.83138434 -.00000162  00000+0  00000+0 0  9994
2 38779   0.0661 260.5064 0007983 188.8869 203.9300  1.00272246 50159
INTELSAT 23 (IS-23)     
1 38867U 12057A   26173.80542720 -.00000282  00000+0  00000+0 0  9995
2 38867   0.0079 330.4914 0000089 323.5037 213.9242  1.00272658 50014
BEIDOU-2 G6             
1 38953U 12059A   26173.83237564 -.00000174  00000+0  00000+0 0  9993
2 38953   4.4368  73.4690 0009813 326.0822 255.1504  1.00271396 49967
LUCH-5B                 
1 38977U 12061A   26173.38503000 -.00000142  00000+0  00000+0 0  9998
2 38977  10.4958  49.8329 0002364 144.2899 198.7873  1.00272227 49650
YAMAL 300K              
1 38978U 12061B   26173.78086012  .00000000  00000+0  00000+0 0  9994
2 38978   0.0128 335.1090 0000913 281.3368 118.5710  1.00268546 49685
STAR ONE C3             
1 38991U 12062A   26173.80109385 -.00000246  00000+0  00000+0 0  9995
2 38991   0.0190  20.2683 0002399  79.4582  24.6415  1.00272707 49822
EUTELSAT 21B            
1 38992U 12062B   26173.82584281  .00000133  00000+0  00000+0 0  9994
2 38992   0.0646 356.5950 0002985  85.5897 147.7175  1.00270208 49889
ECHOSTAR 16             
1 39008U 12065A   26173.30875376 -.00000281  00000+0  00000+0 0  9992
2 39008   0.0098 355.8938 0002001  97.4602 226.7914  1.00271620 49699
ZHONGXING-12            
1 39017U 12067A   26173.89816758 -.00000203  00000+0  00000+0 0  9991
2 39017   0.0507  94.3694 0002935 347.8813 239.6512  1.00270810 49563
EUTELSAT 70B            
1 39020U 12069A   26173.47342897 -.00000041  00000+0  00000+0 0  9999
2 39020   0.0705  25.8492 0003817  56.9595  68.7713  1.00272095 49568
YAMAL 402               
1 39022U 12070A   26173.84080955  .00000089  00000+0  00000+0 0  9999
2 39022   1.2804  84.0986 0003931   5.5737 178.9270  1.00272411 49455
SKYNET 5D               
1 39034U 12075A   26173.84505003  .00000102  00000+0  00000+0 0  9999
2 39034   0.0659   3.0347 0003817  96.4211 168.5547  1.00273256 49218
MEXSAT 3                
1 39035U 12075B   26173.65054380 -.00000023  00000+0  00000+0 0  9999
2 39035   0.0167  42.6317 0001485  36.0373 311.5222  1.00269284  7105
TDRS 11                 
1 39070U 13004A   26173.78138012  .00000080  00000+0  00000+0 0  9992
2 39070   3.5287  31.3468 0005218  22.5389 323.9284  1.00271467 46746
AMAZONAS 3              
1 39078U 13006A   26173.80386719 -.00000279  00000+0  00000+0 0  9995
2 39078   0.0332 150.7208 0002304 341.0201   7.6326  1.00270895 44970
AZERSPACE 1             
1 39079U 13006B   26173.53984725  .00000135  00000+0  00000+0 0  9997
2 39079   0.0180   7.4921 0001708 114.2241  29.3229  1.00272546 48863
SBIRS GEO-2 (USA 241)   
1 39120U 13011A   26173.52086353 -.00000287  00000+0  00000+0 0  9998
2 39120   4.5006  52.5097 0002063  32.1024 323.7995  1.00271247 48580
EUTELSAT 117 WEST A     
1 39122U 13012A   26173.68239051 -.00000010  00000+0  00000+0 0  9997
2 39122   0.0280  49.7674 0002942  42.1273 307.8251  1.00272839 48484
ANIK G1                 
1 39127U 13014A   26173.58080080 -.00000072  00000+0  00000+0 0  9997
2 39127   0.0332 274.3702 0001754 172.3990 285.7594  1.00272124 48309
ZHONGXING-11            
1 39157U 13020A   26173.86819016 -.00000287  00000+0  00000+0 0  9995
2 39157   0.0258 301.4974 0002439 126.7188 253.2792  1.00272777 47959
EUTELSAT 7B             
1 39163U 13022A   26173.82891889  .00000051  00000+0  00000+0 0  9996
2 39163   0.0644   3.5607 0004433  35.5850 177.2541  1.00271404 48007
WGS F5 (USA 243)        
1 39168U 13024A   26173.44906230  .00000000  00000+0  00000+0 0  9992
2 39168   0.0209 358.3722 0000291  51.1634 330.2497  1.00269820 47223
SES-6                   
1 39172U 13026A   26173.80794054 -.00000258  00000+0  00000+0 0  9994
2 39172   0.0164 351.5793 0002702 103.3834  66.3862  1.00271925 47785
IRNSS-1A                
1 39199U 13034A   26169.89544831  .00000051  00000+0  00000+0 0  9992
2 39199  35.7241  63.8469 0017589 183.2529  37.3106  1.00275723 47380
MUOS-2                  
1 39206U 13036A   26173.77725181 -.00000012  00000+0  00000+0 0  9992
2 39206   5.0058  45.5353 0051393 177.3302 139.8964  1.00274130 47244
ALPHASAT                
1 39215U 13038A   26173.53568723  .00000134  00000+0  00000+0 0  9999
2 39215   2.9984   1.3327 0001947  95.9349  31.1696  1.00273528 44079
INSAT-3D                
1 39216U 13038B   26173.84151560 -.00000336  00000+0  00000+0 0  9996
2 39216   1.9416  82.4783 0000997 355.2731 265.7190  1.00273436 47138
WGS F6 (USA 244)        
1 39222U 13041A   26173.68795111  .00000092  00000+0  00000+0 0  9993
2 39222   0.0190  15.6873 0000302  39.8714 327.7634  1.00272448 46119
ES'HAIL 1               
1 39233U 13044A   26173.82094881  .00000146  00000+0  00000+0 0  9990
2 39233   0.0470   3.9466 0002083  81.5841 146.4683  1.00271716 46682
GSAT-7                  
1 39234U 13044B   26173.83055562 -.00000073  00000+0  00000+0 0  9995
2 39234   0.0977  92.5650 0002816 190.2477   1.1432  1.00271326 45316
AMOS-4                  
1 39237U 13045A   26173.82873563  .00000000  00000+0  00000+0 0  9996
2 39237   0.0243  57.1886 0002435  13.7819 203.3777  1.00273145 47017
