OBJECT_NAME,OBJECT_ID,EPOCH,MEAN_MOTION,ECCENTRICITY,INCLINATION,RA_OF_ASC_NODE,ARG_OF_PERICENTER,MEAN_ANOMALY,EPHEMERIS_TYPE,CLASSIFICATION_TYPE,NORAD_CAT_ID,ELEMENT_SET_NO,REV_AT_EPOCH,BSTAR,MEAN_MOTION_DOT,MEAN_MOTION_DDOT
ASTRA 2F,2012-051A,2026-06-22T19:42:54.905184,1.00273352,.00018201,0.0495,252.2835,278.3301,64.2855,0,U,38778,999,4119,0,.153E-5,0
GSAT-10,2012-051B,2026-06-22T19:57:11.606976,1.00272246,.00079831,0.0661,260.5064,188.8869,203.9300,0,U,38779,999,5015,0,-.162E-5,0
INTELSAT 23 (IS-23),2012-057A,2026-06-22T19:19:48.910080,1.00272658,.00000895,0.0079,330.4914,323.5037,213.9242,0,U,38867,999,5001,0,-.282E-5,0
BEIDOU-2 G6,2012-059A,2026-06-22T19:58:37.255296,1.00271396,.00098135,4.4368,73.4690,326.0822,255.1504,0,U,38953,999,4996,0,-.174E-5,0
LUCH-5B,2012-061A,2026-06-22T09:14:26.592000,1.00272227,.00023648,10.4958,49.8329,144.2899,198.7873,0,U,38977,999,4965,0,-.142E-5,0
YAMAL 300K,2012-061B,2026-06-22T18:44:26.314368,1.00268546,.00009139,0.0128,335.1090,281.3368,118.5710,0,U,38978,999,4968,0,0,0
STAR ONE C3,2012-062A,2026-06-22T19:13:34.508640,1.00272707,.00023996,0.0190,20.2683,79.4582,24.6415,0,U,38991,999,4982,0,-.246E-5,0
EUTELSAT 21B,2012-062B,2026-06-22T19:49:12.818784,1.00270208,.00029856,0.0646,356.5950,85.5897,147.7175,0,U,38992,999,4988,0,.133E-5,0
ECHOSTAR 16,2012-065A,2026-06-22T07:24:36.324864,1.00271620,.00020015,0.0098,355.8938,97.4602,226.7914,0,U,39008,999,4969,0,-.281E-5,0
ZHONGXING-12,2012-067A,2026-06-22T21:33:21.678912,1.00270810,.00029351,0.0507,94.3694,347.8813,239.6512,0,U,39017,999,4956,0,-.203E-5,0
EUTELSAT 70B,2012-069A,2026-06-22T11:21:44.263008,1.00272095,.00038177,0.0705,25.8492,56.9595,68.7713,0,U,39020,999,4956,0,-.41E-6,0
YAMAL 402,2012-070A,2026-06-22T20:10:45.945120,1.00272411,.0003931,1.2804,84.0986,5.5737,178.9270,0,U,39022,999,4945,0,.89E-6,0
SKYNET 5D,2012-075A,2026-06-22T20:16:52.322592,1.00273256,.00038176,0.0659,3.0347,96.4211,168.5547,0,U,39034,999,4921,0,.102E-5,0
MEXSAT 3,2012-075B,2026-06-22T15:36:46.984320,1.00269284,.00014854,0.0167,42.6317,36.0373,311.5222,0,U,39035,999,710,0,-.23E-6,0
TDRS 11,2013-004A,2026-06-22T18:45:11.242368,1.00271467,.00052181,3.5287,31.3468,22.5389,323.9284,0,U,39070,999,4674,0,.8E-6,0
AMAZONAS 3,2013-006A,2026-06-22T19:17:34.125216,1.00270895,.00023041,0.0332,150.7208,341.0201,7.6326,0,U,39078,999,4497,0,-.279E-5,0
AZERSPACE 1,2013-006B,2026-06-22T12:57:22.802400,1.00272546,.00017085,0.0180,7.4921,114.2241,29.3229,0,U,39079,999,4886,0,.135E-5,0
SBIRS GEO-2 (USA 241),2013-011A,2026-06-22T12:30:02.608992,1.00271247,.00020638,4.5006,52.5097,32.1024,323.7995,0,U,39120,999,4858,0,-.287E-5,0
EUTELSAT 117 WEST A,2013-012A,2026-06-22T16:22:38.540064,1.00272839,.00029424,0.0280,49.7674,42.1273,307.8251,0,U,39122,999,4848,0,-.1E-6,0
ANIK G1,2013-014A,2026-06-22T13:56:21.189120,1.00272124,.00017545,0.0332,274.3702,172.3990,285.7594,0,U,39127,999,4830,0,-.72E-6,0
ZHONGXING-11,2013-020A,2026-06-22T20:50:11.629824,1.00272777,.00024394,0.0258,301.4974,126.7188,253.2792,0,U,39157,999,4795,0,-.287E-5,0
EUTELSAT 7B,2013-022A,2026-06-22T19:53:38.592096,1.00271404,.00044336,0.0644,3.5607,35.5850,177.2541,0,U,39163,999,4800,0,.51E-6,0
WGS F5 (USA 243),2013-024A,2026-06-22T10:46:38.982720,1.00269820,.00002911,0.0209,358.3722,51.1634,330.2497,0,U,39168,999,4722,0,0,0
SES-6,2013-026A,2026-06-22T19:23:26.062656,1.00271925,.00027026,0.0164,351.5793,103.3834,66.3862,0,U,39172,999,4778,0,-.258E-5,0
IRNSS-1A,2013-034A,2026-06-18T21:29:26.733984,1.00275723,.00175894,35.7241,63.8469,183.2529,37.3106,0,U,39199,999,4738,0,.51E-6,0
MUOS-2,2013-036A,2026-06-22T18:39:14.556384,1.00274130,.00513935,5.0058,45.5353,177.3302,139.8964,0,U,39206,999,4724,0,-.12E-6,0
ALPHASAT,2013-038A,2026-06-22T12:51:23.376672,1.00273528,.00019478,2.9984,1.3327,95.9349,31.1696,0,U,39215,999,4407,0,.134E-5,0
INSAT-3D,2013-038B,2026-06-22T20:11:46.947840,1.00273436,.00009976,1.9416,82.4783,355.2731,265.7190,0,U,39216,999,4713,0,-.336E-5,0
WGS F6 (USA 244),2013-041A,2026-06-22T16:30:38.975904,1.00272448,.0000302,0.0190,15.6873,39.8714,327.7634,0,U,39222,999,4611,0,.92E-6,0
ES'HAIL 1,2013-044A,2026-06-22T19:42:09.977184,1.00271716,.00020834,0.0470,3.9466,81.5841,146.4683,0,U,39233,999,4668,0,.146E-5,0
GSAT-7,2013-044B,2026-06-22T19:56:00.005568,1.00271326,.00028165,0.0977,92.5650,190.2477,1.1432,0,U,39234,999,4531,0,-.73E-6,0
AMOS-4,2013-045A,2026-06-22T19:53:22.758432,1.00273145,.00024353,0.0243,57.1886,13.7819,203.3777,0,U,39237,999,4701,0,0,0
